{
  "type": "FeatureCollection",
  "name": "versioned_governance_phasing",
  "features": [
    {
      "type": "Feature",
      "id": "PHASE-V01",
      "properties": {
        "id": "PHASE-V01",
        "layer": "PHASE",
        "source_type": "agent_generated_design",
        "confidence": "medium",
        "geometry_role": "design_proposal",
        "phase": "v0.1",
        "release": "v0.1",
        "name_zh": "观察、基线与公众共识",
        "name_en": "Observe, baseline, and public consent",
        "rollback_required": true,
        "public_review_required": true,
        "concept_only": true,
        "area_sqm_declared": 3526423.851
      },
      "geometry": {
        "type": "Polygon",
        "coordinates": [
          [
            [
              116.34070000000001,
              39.93899999999999
            ],
            [
              116.3397,
              39.975
            ],
            [
              116.34169999999999,
              40.00600000000001
            ],
            [
              116.34270000000001,
              40.026500000000006
            ],
            [
              116.34467645889394,
              40.026500090603044
            ],
            [
              116.34551189983854,
              39.93900020312833
            ],
            [
              116.34070000000001,
              39.93899999999999
            ]
          ]
        ]
      }
    },
    {
      "type": "Feature",
      "id": "PHASE-V02",
      "properties": {
        "id": "PHASE-V02",
        "layer": "PHASE",
        "source_type": "agent_generated_design",
        "confidence": "medium",
        "geometry_role": "design_proposal",
        "phase": "v0.2",
        "release": "v0.2",
        "name_zh": "可逆试点与独立评估",
        "name_en": "Reversible pilots and independent evaluation",
        "rollback_required": true,
        "public_review_required": true,
        "concept_only": true,
        "area_sqm_declared": 4539007.298
      },
      "geometry": {
        "type": "Polygon",
        "coordinates": [
          [
            [
              116.34551189983854,
              39.93900020312833
            ],
            [
              116.34467645889394,
              40.026500090603044
            ],
            [
              116.35014919055196,
              40.02650016556562
            ],
            [
              116.35097765478567,
              39.93900019158827
            ],
            [
              116.34551189983854,
              39.93900020312833
            ]
          ]
        ]
      }
    },
    {
      "type": "Feature",
      "id": "PHASE-V10",
      "properties": {
        "id": "PHASE-V10",
        "layer": "PHASE",
        "source_type": "agent_generated_design",
        "confidence": "medium",
        "geometry_role": "design_proposal",
        "phase": "v1.0",
        "release": "v1.0",
        "name_zh": "经审查后扩展与标准外溢",
        "name_en": "Reviewed scaling and standards spillover",
        "rollback_required": true,
        "public_review_required": true,
        "concept_only": true,
        "area_sqm_declared": 3347394.236
      },
      "geometry": {
        "type": "Polygon",
        "coordinates": [
          [
            [
              116.3533,
              39.99
            ],
            [
              116.3553,
              39.965
            ],
            [
              116.3553,
              39.939
            ],
            [
              116.35097765478567,
              39.93900019158827
            ],
            [
              116.35014919055196,
              40.02650016556562
            ],
            [
              116.3553,
              40.02649999999999
            ],
            [
              116.3533,
              39.99
            ]
          ]
        ]
      }
    }
  ]
}
